#aV2008  9  9  0  0   .00000000      96 DD+AD WGS84 FIT  NGA
## 1496 172800.00000000   900.00000000 54718  .0000000000000
+   31     2  3  4  5  6  7  8  9 10 11 12 13 14 15 16 17 18
+         19 20 21 22 23 24 25 26 27 28 29 30 31 32  0  0  0
+          0  0  0  0  0  0  0  0  0  0  0  0  0  0  0  0  0
+          0  0  0  0  0  0  0  0  0  0  0  0  0  0  0  0  0
+          0  0  0  0  0  0  0  0  0  0  0  0  0  0  0  0  0
++         0  0  0  0  0  0  0  0  0  0  0  0  0  0  0  0  0
++         0  0  0  0  0  0  0  0  0  0  0  0  0  0  0  0  0
++         0  0  0  0  0  0  0  0  0  0  0  0  0  0  0  0  0
++         0  0  0  0  0  0  0  0  0  0  0  0  0  0  0  0  0
++         0  0  0  0  0  0  0  0  0  0  0  0  0  0  0  0  0
%c cc cc ccc ccc cccc cccc cccc cccc ccccc ccccc ccccc ccccc
%c cc cc ccc ccc cccc cccc cccc cccc ccccc ccccc ccccc ccccc
%f  0.0000000  0.000000000  0.00000000000  0.000000000000000
%f  0.0000000  0.000000000  0.00000000000  0.000000000000000
%i    0    0    0    0      0      0      0      0         0
%i    0    0    0    0      0      0      0      0         0
/*      NGA, ST. LOUIS,MO.                                  
/*   EPHEMERIS COMPUTED FROM  3 DAYS OF DATA                
/* CCCCCCCCCCCCCCCCCCCCCCCCCCCCCCCCCCCCCCCCCCCCCCCCCCCCCCCCC
/* CCCCCCCCCCCCCCCCCCCCCCCCCCCCCCCCCCCCCCCCCCCCCCCCCCCCCCCCC
*  2008  9  9 18 15   .00000000                                                 
P  2 -22808.404362  12934.306109  -2842.023487    188.640320                    
V  2    831.346800  -5002.033074 -31306.107443      -.028204                    
P  3  12389.196057 -13029.764374  19164.157532    281.211550                    
V  3   6049.660972  24494.969415  12918.790242       .051709                    
P  4 -22831.932580   2982.399031 -13654.526397   -166.530540                    
V  4  13029.538232 -11278.385466 -24070.834464      -.108682                    
P  5   4810.257930  17327.299913 -19878.261071     52.321400                    
V  5 -23404.342474  -7777.938484 -12497.508036     -2.142828                    
P  6  14606.917695  -8233.400170  20789.553387    166.973139                    
V  6   3567.840488  25840.013994   7794.897003      -.010469                    
P  7  -5504.151605 -14364.065409  21614.725985     15.966078                    
V  7  23164.454000 -14855.938359  -4061.837761       .027537                    
P  8 -17262.794018  -5006.790705  19643.313960   -169.294502                    
V  8  21124.810808 -13188.336628  14664.888809      -.016169                    
P  9  -9961.737701  19814.612238 -15161.356167     14.140104                    
V  9 -15750.430752   9182.549557  23473.692077       .019102                    
P 10 -18316.905705   4939.679848  18584.434172     -4.671881                    
V 10 -20373.829469 -12300.850334 -16367.215336      -.004159                    
P 11   5734.786818 -21728.303370 -14066.282952     20.150529                    
V 11  15451.807173  -9918.494258  22223.498940      -.007209                    
P 12  -1953.408649  15584.983174 -21352.147924   -351.600271                    
V 12 -24585.025545 -11809.626237  -6250.900711       .014861                    
P 13  -5808.745709 -24424.020527   8556.698605    270.558350                    
V 13   1474.658401 -11010.808657 -30009.215944       .012631                    
P 14  13858.533204   9070.506697 -20684.998521   -221.813500                    
V 14    111.690688  26410.557220  11484.746866       .046878                    
P 15  -7719.605591  21727.943803  13194.880015   -174.495367                    
V 15  -3536.645068 -16511.593684  25183.109333      -.064762                    
P 16  21883.450367   -428.315321  15252.163686    107.836915                    
V 16  16164.447639  10441.280850 -22784.696446      -.020013                    
P 17 -14557.948297  -9375.988532 -20142.150765     38.895162                    
V 17   -209.258683 -25647.085852  11894.727163       .001379                    
P 18  17559.086388  17678.371904   9915.964014   -135.715620                    
V 18 -11962.160968  -3556.236279  27727.624988       .041103                    
P 19   8691.938748 -21941.555495  12053.412530     35.339749                    
V 19   2409.294501  15294.104587  26471.578998       .002542                    
P 20  -1899.984113 -17145.368261 -20318.484705    105.105565                    
V 20  23576.617019  10013.917666 -10679.659036      -.010378                    
P 21  11541.557667  11329.169745  21334.180144     51.262481                    
V 21 -22455.256796  14338.982735   3961.419006      -.014485                    
P 22  23943.878782  11313.268373  -2285.973672    211.066979                    
V 22   1120.332296   4385.692103  31152.496551      -.001604                    
P 23    -37.258734 -26332.306169  -2126.767363    372.499080                    
V 23   2840.678531   2489.388715 -32016.631291       .014923                    
P 24  -4600.390016  18352.610761  18908.297529    123.949333                    
V 24 -21013.490599  10845.384237 -15501.481410       .029225                    
P 25   1071.900740 -18306.437965  19631.843668   -191.808274                    
V 25  19395.814761 -14334.221694 -14520.037192       .504468                    
P 26 -10404.263345  17451.036906  16310.841030    323.102839                    
V 26  -1926.769854 -21784.284949  21945.697262       .056489                    
P 27  -9054.441240 -12352.524882  22379.261143    216.383725                    
V 27  21439.578573 -16020.702744   -291.796832       .027290                    
P 28 -23717.140080 -12330.501124   -451.272220    -22.368957                    
V 28    230.264475  -2629.261272  31610.449045      -.003553                    
P 29   4873.883638  25556.562378   5538.905223    -38.028678                    
V 29  -2437.298130   6986.542657 -30677.131003       .008639                    
P 30  13313.358340  17763.963737 -15006.447906     95.763222                    
V 30 -17683.860224  -5606.368749 -22780.236243       .020268                    
P 31  23260.548564  -6410.548531 -11015.094367    -25.423993                    
V 31 -10642.858869   9720.892097 -27519.397687      -.022542                    
P 32   6332.834666 -13521.562864 -21543.449702    315.931650                    
V 32  24256.274628  14699.390434  -1873.441326       .007035                    
EOF
